{
  "type": "FeatureCollection",
  "name": "bihar_dfo_flood_events_clean",
  "crs": {
    "type": "name",
    "properties": {
      "name": "urn:ogc:def:crs:OGC:1.3:CRS84"
    }
  },
  "features": [
    {
      "type": "Feature",
      "properties": {
        "Register__": 3682.0,
        "Annual_DFO": 93.0,
        "Glide__": "",
        "Country__c": "India",
        "Other": "",
        "Nations": "",
        "Affected": "",
        "Detailed_L": "Bihar; 100 villages in Aurai, Katra and Gaighat blocks of Muzaffarpur",
        "Rivers": "",
        "Began": "2010-07-12",
        "Ended": "2010-07-14",
        "Duration_i": 3.0,
        "Dead": 0.0,
        "Displaced": 5000.0,
        "Damage__US": 0.0,
        "Main_cause": "Monsoonal Rain",
        "Severity__": 1.0,
        "Affected_s": 192700.0,
        "Magnitude": 5.762003,
        "Centroid_X": 86.2,
        "Centroid_Y": 25.59,
        "\"x\"_if_act": "",
        "M_6": 0.0,
        "Total_annu": 69.0,
        "M_4": 1.0,
        "Total_an_1": 238.0,
        "Date_Began": "2010-07-12",
        "Total_floo": 886.0,
        "Total_fl_1": 3150.0,
        "F31": null,
        "F32": "",
        "F33": "",
        "F34": "",
        "F35": "",
        "F36": "",
        "matched_by": "spatial_containment"
      },
      "geometry": {
        "type": "Point",
        "coordinates": [
          86.2,
          25.59
        ]
      }
    },
    {
      "type": "Feature",
      "properties": {
        "Register__": 3529.0,
        "Annual_DFO": 98.0,
        "Glide__": "",
        "Country__c": "India",
        "Other": "",
        "Nations": "",
        "Affected": "",
        "Detailed_L": "Uttar Predesh, Bihar, Shrawasti, Sitapur, Sant Kabir Nagar, Kushinagar, Maharajganj and Bahraich districts",
        "Rivers": "",
        "Began": "2009-08-15",
        "Ended": "2009-08-27",
        "Duration_i": 27.0,
        "Dead": 14.0,
        "Displaced": 1000000.0,
        "Damage__US": 0.0,
        "Main_cause": "Dam release and Heavy  Rain",
        "Severity__": 1.0,
        "Affected_s": 84900.0,
        "Magnitude": 6.360271,
        "Centroid_X": 80.75,
        "Centroid_Y": 27.63,
        "\"x\"_if_act": "",
        "M_6": 1.0,
        "Total_annu": 21.0,
        "M_4": 1.0,
        "Total_an_1": 95.0,
        "Date_Began": "2009-08-15",
        "Total_floo": 838.0,
        "Total_fl_1": 3005.0,
        "F31": null,
        "F32": "",
        "F33": "",
        "F34": "",
        "F35": "",
        "F36": "",
        "matched_by": "text_location"
      },
      "geometry": {
        "type": "Point",
        "coordinates": [
          80.75,
          27.63
        ]
      }
    },
    {
      "type": "Feature",
      "properties": {
        "Register__": 3519.0,
        "Annual_DFO": 88.0,
        "Glide__": "",
        "Country__c": "India",
        "Other": "",
        "Nations": "",
        "Affected": "",
        "Detailed_L": "Bihar, Bagmati River, Tilaktajpur under Runnisaidpur block in Sitamarhi",
        "Rivers": "",
        "Began": "2009-08-01",
        "Ended": "2009-08-04",
        "Duration_i": 4.0,
        "Dead": 0.0,
        "Displaced": 3000.0,
        "Damage__US": 0.0,
        "Main_cause": "Levee failure",
        "Severity__": 1.5,
        "Affected_s": 21200.0,
        "Magnitude": 5.104487,
        "Centroid_X": 85.5,
        "Centroid_Y": 26.5,
        "\"x\"_if_act": "",
        "M_6": 0.0,
        "Total_annu": 20.0,
        "M_4": 1.0,
        "Total_an_1": 86.0,
        "Date_Began": "2009-08-01",
        "Total_floo": 837.0,
        "Total_fl_1": 2996.0,
        "F31": null,
        "F32": "",
        "F33": "",
        "F34": "",
        "F35": "",
        "F36": "",
        "matched_by": "spatial_containment"
      },
      "geometry": {
        "type": "Point",
        "coordinates": [
          85.5,
          26.5
        ]
      }
    },
    {
      "type": "Feature",
      "properties": {
        "Register__": 3372.0,
        "Annual_DFO": 121.0,
        "Glide__": "",
        "Country__c": "India",
        "Other": "",
        "Nations": "",
        "Affected": "",
        "Detailed_L": "Northern India, Bihar, Assam, Brahmaputra River",
        "Rivers": "",
        "Began": "2008-08-30",
        "Ended": "2008-09-08",
        "Duration_i": 10.0,
        "Dead": 900.0,
        "Displaced": 1000000.0,
        "Damage__US": 0.0,
        "Main_cause": "Monsoon Rains",
        "Severity__": 1.5,
        "Affected_s": 80590.0,
        "Magnitude": 6.082372,
        "Centroid_X": 94.55,
        "Centroid_Y": 27.044,
        "\"x\"_if_act": "",
        "M_6": 1.0,
        "Total_annu": 45.0,
        "M_4": 1.0,
        "Total_an_1": 111.0,
        "Date_Began": "2008-08-30",
        "Total_floo": 800.0,
        "Total_fl_1": 2854.0,
        "F31": null,
        "F32": "",
        "F33": "",
        "F34": "",
        "F35": "",
        "F36": "",
        "matched_by": "text_location"
      },
      "geometry": {
        "type": "Point",
        "coordinates": [
          94.55,
          27.044
        ]
      }
    },
    {
      "type": "Feature",
      "properties": {
        "Register__": 3365.0,
        "Annual_DFO": 114.0,
        "Glide__": "",
        "Country__c": "Nepal",
        "Other": "India",
        "Nations": "",
        "Affected": "",
        "Detailed_L": "Eastern Nepal, Haripur, Sripur, Laukahi and western Kushaha villages in Sunsari  district'; northeast India, Assam, Bihar",
        "Rivers": "Saptakoshi River, Kosi River",
        "Began": "2008-08-18",
        "Ended": "2008-09-24",
        "Duration_i": 38.0,
        "Dead": 400.0,
        "Displaced": 10000000.0,
        "Damage__US": 0.0,
        "Main_cause": "Heavy monsoon rains",
        "Severity__": 2.0,
        "Affected_s": 163700.0,
        "Magnitude": 7.094862,
        "Centroid_X": 84.923,
        "Centroid_Y": 26.951,
        "\"x\"_if_act": "",
        "M_6": 1.0,
        "Total_annu": 42.0,
        "M_4": 1.0,
        "Total_an_1": 104.0,
        "Date_Began": "2008-08-18",
        "Total_floo": 797.0,
        "Total_fl_1": 2847.0,
        "F31": null,
        "F32": "",
        "F33": "",
        "F34": "",
        "F35": "",
        "F36": "",
        "matched_by": "spatial_containment"
      },
      "geometry": {
        "type": "Point",
        "coordinates": [
          84.923,
          26.951
        ]
      }
    },
    {
      "type": "Feature",
      "properties": {
        "Register__": 3338.0,
        "Annual_DFO": 87.0,
        "Glide__": "",
        "Country__c": "India",
        "Other": "Bangladesh",
        "Nations": "Nepal",
        "Affected": "",
        "Detailed_L": "Assam, eastern districts of Lakhimpur and Jorhat; Uttar Pradesh, Bihar, eastern Nepal",
        "Rivers": "Brahmaputra",
        "Began": "2008-07-20",
        "Ended": "2008-08-08",
        "Duration_i": 20.0,
        "Dead": 142.0,
        "Displaced": 225000.0,
        "Damage__US": 0.0,
        "Main_cause": "monsoonal rainfall",
        "Severity__": 2.0,
        "Affected_s": 283800.0,
        "Magnitude": 7.055072,
        "Centroid_X": 89.79,
        "Centroid_Y": 27.5,
        "\"x\"_if_act": "",
        "M_6": 1.0,
        "Total_annu": 35.0,
        "M_4": 1.0,
        "Total_an_1": 80.0,
        "Date_Began": "2008-07-20",
        "Total_floo": 790.0,
        "Total_fl_1": 2823.0,
        "F31": null,
        "F32": "",
        "F33": "",
        "F34": "",
        "F35": "",
        "F36": "",
        "matched_by": "text_location"
      },
      "geometry": {
        "type": "Point",
        "coordinates": [
          89.79,
          27.5
        ]
      }
    },
    {
      "type": "Feature",
      "properties": {
        "Register__": 2894.0,
        "Annual_DFO": 118.0,
        "Glide__": "FL-2006-000096-IND",
        "Country__c": "India",
        "Other": "Nepal",
        "Nations": "",
        "Affected": "",
        "Detailed_L": "India - Uttar Pradesh - districts: Ballia, Chandauli, Hardoi, Bareilly, Bijnore, Lakhimpur Kheri, Gorakhpur, Jaunpur, Varanasi. Towns: Agra, Lucknow.  \nBihar - Muzaffarpur, Sitamarhi and Bhagalpur districts\nWest Bengal - Birbhum, Burdwan and Murshidabad.",
        "Rivers": "Ganges and tributaries including\nRapti, Ganga and Varuna",
        "Began": "2006-06-24",
        "Ended": "2006-08-03",
        "Duration_i": 41.0,
        "Dead": 160.0,
        "Displaced": 0.0,
        "Damage__US": 0.0,
        "Main_cause": "Monsoonal rain",
        "Severity__": 1.0,
        "Affected_s": 506600.0,
        "Magnitude": 7.317449,
        "Centroid_X": 83.67,
        "Centroid_Y": 25.62,
        "\"x\"_if_act": "",
        "M_6": 1.0,
        "Total_annu": 30.0,
        "M_4": 1.0,
        "Total_an_1": 107.0,
        "Date_Began": "2006-06-24",
        "Total_floo": 657.0,
        "Total_fl_1": 2436.0,
        "F31": null,
        "F32": "",
        "F33": "",
        "F34": "",
        "F35": "",
        "F36": "",
        "matched_by": "text_location"
      },
      "geometry": {
        "type": "Point",
        "coordinates": [
          83.67,
          25.62
        ]
      }
    },
    {
      "type": "Feature",
      "properties": {
        "Register__": 2507.0,
        "Annual_DFO": 96.0,
        "Glide__": "",
        "Country__c": "India",
        "Other": "Bangladesh",
        "Nations": "Burma (Myanmar)",
        "Affected": "",
        "Detailed_L": "India\n--Bihar State - 18 out of 38 districts including: Darbhanga, Sheohar, Madhubani, Sitamarhi, East Champaran, Samastipur, Muzaffarpur, Bhagalpur, Banka, West --Champaran, Siwan, Araria, Katihar, Khagaria, Supaul.  \n--Assam State - 26 of 28 districts",
        "Rivers": "Uttar Pradesh - Sarda.\nBihar - Kiul, Bagmati, Adhawara, Lakhandai, Sakri, Bhutahi Balan, Kosi, Gandak, Burhi. \nAssam - Brahmaputra and tributaries.\nArunachal Pradesh - Pakke, Bordikrai, Hulengi, Satrang.   \nWest Bengal - Bhagirathi and Ichhamati. Fulohar",
        "Began": "2004-06-20",
        "Ended": "2004-10-07",
        "Duration_i": 110.0,
        "Dead": 3000.0,
        "Displaced": 40000000.0,
        "Damage__US": 0.0,
        "Main_cause": "Monsoonal rain",
        "Severity__": 1.5,
        "Affected_s": 1163000.0,
        "Magnitude": 8.283064,
        "Centroid_X": 0.0,
        "Centroid_Y": 0.0,
        "\"x\"_if_act": "",
        "M_6": 1.0,
        "Total_annu": 23.0,
        "M_4": 1.0,
        "Total_an_1": 69.0,
        "Date_Began": "2004-06-20",
        "Total_floo": 549.0,
        "Total_fl_1": 2113.0,
        "F31": null,
        "F32": "",
        "F33": "",
        "F34": "",
        "F35": "",
        "F36": "",
        "matched_by": "text_location"
      },
      "geometry": {
        "type": "Point",
        "coordinates": [
          -1.7976931348623157e+308,
          -1.7976931348623157e+308
        ]
      }
    },
    {
      "type": "Feature",
      "properties": {
        "Register__": 1974.0,
        "Annual_DFO": 121.0,
        "Glide__": "",
        "Country__c": "India",
        "Other": "Bangledesh",
        "Nations": "",
        "Affected": "",
        "Detailed_L": "Northeastern India \n--North Bengal - Jalpaiguri, Cooch Behar and Jalpaiguri . Rivers: Torsa, Tista.\n--Bihar State - 24 of 38 districts including: Madhubani, Sitamarhi, Muzaffarpur, Gopalganj, Saharsa, Nalanda,  Darbhanga, Sheohar, West Champaran, Bagha,",
        "Rivers": "Ganga-Padma, Brammaputra-Jumuna and the Meghna river basin.\n\nIndia - Torsa, Tista. Bagmati, Kosi, Gandak, Kareh, Adhwara, Ganga, Burhi Gandak, Punpun. Jiadhal, Subansiri, Bramaputra, Barak and Kathakal.",
        "Began": "2002-06-21",
        "Ended": "2002-08-28",
        "Duration_i": 69.0,
        "Dead": 503.0,
        "Displaced": 15000000.0,
        "Damage__US": 0.0,
        "Main_cause": "Monsoonal rain",
        "Severity__": 1.0,
        "Affected_s": 276600.0,
        "Magnitude": 7.280701,
        "Centroid_X": 0.0,
        "Centroid_Y": 0.0,
        "\"x\"_if_act": "",
        "M_6": 1.0,
        "Total_annu": 26.0,
        "M_4": 1.0,
        "Total_an_1": 85.0,
        "Date_Began": "2002-06-21",
        "Total_floo": 448.0,
        "Total_fl_1": 1740.0,
        "F31": null,
        "F32": "",
        "F33": "",
        "F34": "",
        "F35": "",
        "F36": "",
        "matched_by": "text_location"
      },
      "geometry": {
        "type": "Point",
        "coordinates": [
          -1.7976931348623157e+308,
          -1.7976931348623157e+308
        ]
      }
    },
    {
      "type": "Feature",
      "properties": {
        "Register__": 1791.0,
        "Annual_DFO": 109.0,
        "Glide__": "",
        "Country__c": "India",
        "Other": "",
        "Nations": "",
        "Affected": "",
        "Detailed_L": "Bihar State - Northern Districts: Gopalganj, East Champaran, Saran and Madhubani; also Saharsa, Samastipur, Begusarai, West Champaran, Sitamarhi, Muzaffarpur, Darbhanga, Sheohar, Siwan, Madhubani, Katihar, Vaishali and Patna. Towns; Muzaffarpur, Marhaura",
        "Rivers": "Ganga, Burhi Gandak, Gandak, Ghagra, Bagmati, Kosi and Adhwara group of rivers, Mahananda.",
        "Began": "2001-09-07",
        "Ended": "2001-09-24",
        "Duration_i": 18.0,
        "Dead": 146.0,
        "Displaced": 30000.0,
        "Damage__US": 93574547.723019,
        "Main_cause": "Heavy rain",
        "Severity__": 1.0,
        "Affected_s": 30120.0,
        "Magnitude": 5.734127,
        "Centroid_X": 0.0,
        "Centroid_Y": 0.0,
        "\"x\"_if_act": "",
        "M_6": 0.0,
        "Total_annu": 11.0,
        "M_4": 1.0,
        "Total_an_1": 70.0,
        "Date_Began": "2001-09-07",
        "Total_floo": 416.0,
        "Total_fl_1": 1613.0,
        "F31": null,
        "F32": "",
        "F33": "",
        "F34": "",
        "F35": "",
        "F36": "",
        "matched_by": "text_location"
      },
      "geometry": {
        "type": "Point",
        "coordinates": [
          -1.7976931348623157e+308,
          -1.7976931348623157e+308
        ]
      }
    },
    {
      "type": "Feature",
      "properties": {
        "Register__": 1766.0,
        "Annual_DFO": 84.0,
        "Glide__": "",
        "Country__c": "India",
        "Other": "Bangladesh",
        "Nations": "",
        "Affected": "",
        "Detailed_L": "Bangladesh - Districts:\u00a0Sylhet, Moulavibazar, Sunamganj, Netrokona, Chapainawabganj, Kurigram, Sirajganj, Rajshahi, Nilphamari, Rangpur, Lalmonirhat. Rivers: Dhalai, Surma, Dharla, Ganges and Brahmaputra, Padma and Mahananda. \n---India -\n--Bihar State -",
        "Rivers": "Bangladesh - Dhalai, Surma, Dharla, Ganges and Brahmaputra, Padma and Mahananda. \n---India \n--Bihar - Gandak, Bagmati, Kamala Balan, Ganga, Koshi, Barhi Gandak, Sikarahana. \n--West Bengal - Ganga, Mahananda and Fulahar. \n--Assam -  Brahmaputra River.",
        "Began": "2001-07-31",
        "Ended": "2001-09-02",
        "Duration_i": 34.0,
        "Dead": 36.0,
        "Displaced": 2750000.0,
        "Damage__US": 2000000.0,
        "Main_cause": "Monsoonal rain",
        "Severity__": 1.0,
        "Affected_s": 190700.0,
        "Magnitude": 6.81183,
        "Centroid_X": 0.0,
        "Centroid_Y": 0.0,
        "\"x\"_if_act": "",
        "M_6": 1.0,
        "Total_annu": 8.0,
        "M_4": 1.0,
        "Total_an_1": 54.0,
        "Date_Began": "2001-07-31",
        "Total_floo": 413.0,
        "Total_fl_1": 1597.0,
        "F31": null,
        "F32": "",
        "F33": "",
        "F34": "",
        "F35": "",
        "F36": "",
        "matched_by": "text_location"
      },
      "geometry": {
        "type": "Point",
        "coordinates": [
          -1.7976931348623157e+308,
          -1.7976931348623157e+308
        ]
      }
    },
    {
      "type": "Feature",
      "properties": {
        "Register__": 1641.0,
        "Annual_DFO": 61.0,
        "Glide__": "",
        "Country__c": "India",
        "Other": "Bangladesh",
        "Nations": "",
        "Affected": "",
        "Detailed_L": "Northeastern India \n--West Bengal State - Districts: Murshidabad, Birbhum, Nadia, Bardhaman, Hoogly, Howrah, Midnapore, North Dinajpur, Bankura, 24 Parganas. Towns: Mayapur, Salar, Bharatpur, Baroan, Kandi, Katwa, Muraroi, Calcutta. -- \n--Bihar State - D",
        "Rivers": "India - Ganges, Kosi, Bagmati, Burhi Ganduk, Hoogly, Kharia, Ichamati and Jamuna. Reservoirs discharged on Damodar, Mayurakshi and Ajoy Rivers. \nBangladesh -- Padma Surma and Kushiyara.",
        "Began": "2000-09-18",
        "Ended": "2000-10-21",
        "Duration_i": 34.0,
        "Dead": 1468.0,
        "Displaced": 24000000.0,
        "Damage__US": 700000000.0,
        "Main_cause": "Monsoonal rain",
        "Severity__": 2.0,
        "Affected_s": 155000.0,
        "Magnitude": 7.022841,
        "Centroid_X": 0.0,
        "Centroid_Y": 0.0,
        "\"x\"_if_act": "",
        "M_6": 1.0,
        "Total_annu": 23.0,
        "M_4": 1.0,
        "Total_an_1": 59.0,
        "Date_Began": "2000-09-18",
        "Total_floo": 398.0,
        "Total_fl_1": 1508.0,
        "F31": null,
        "F32": "",
        "F33": "",
        "F34": "",
        "F35": "",
        "F36": "",
        "matched_by": "text_location"
      },
      "geometry": {
        "type": "Point",
        "coordinates": [
          -1.7976931348623157e+308,
          -1.7976931348623157e+308
        ]
      }
    },
    {
      "type": "Feature",
      "properties": {
        "Register__": 1626.0,
        "Annual_DFO": 46.0,
        "Glide__": "",
        "Country__c": "India\u00a0",
        "Other": "",
        "Nations": "",
        "Affected": "",
        "Detailed_L": "Uttar Pradesh State - \u00a0Districts: Sidharthnagar, Gonda, Balrampur, Shravast, Bahraich, Raebareli and Barabanki. Regions: Farrukhabad, Badau, Hardoi and Pratapgarh. Towns: Bijnour, Azamgarh.  \n--Bihar State - 21 north and central Bihar districts",
        "Rivers": "Uttar Pradesh - Ganges, Yamuna and Ghaghra\n--Bihar - Rivers Ganga, Burhi Gandak, Kosi, Bagmati and Punpun",
        "Began": "2000-08-29",
        "Ended": "2000-09-14",
        "Duration_i": 17.0,
        "Dead": 578.0,
        "Displaced": 0.0,
        "Damage__US": 0.0,
        "Main_cause": "Monsoonal rain",
        "Severity__": 1.0,
        "Affected_s": 223200.0,
        "Magnitude": 6.579143,
        "Centroid_X": 0.0,
        "Centroid_Y": 0.0,
        "\"x\"_if_act": "",
        "M_6": 1.0,
        "Total_annu": 21.0,
        "M_4": 1.0,
        "Total_an_1": 46.0,
        "Date_Began": "2000-08-29",
        "Total_floo": 396.0,
        "Total_fl_1": 1495.0,
        "F31": null,
        "F32": "",
        "F33": "",
        "F34": "",
        "F35": "",
        "F36": "",
        "matched_by": "text_location"
      },
      "geometry": {
        "type": "Point",
        "coordinates": [
          -1.7976931348623157e+308,
          -1.7976931348623157e+308
        ]
      }
    },
    {
      "type": "Feature",
      "properties": {
        "Register__": 1617.0,
        "Annual_DFO": 37.0,
        "Glide__": "",
        "Country__c": "India",
        "Other": "Bangladesh",
        "Nations": "Bhutan",
        "Affected": "",
        "Detailed_L": "India - States: Assam, Bihar, West Bengal, Uttar Pradesh, Madhya Pradesh. Districts: 17 Distritcts in Assam including Nalbari, Assams, Kokrajhar, Sonitpur; also Katihar, Kumaon, Pithoragarh, Nainital. Towns: Guwahati, Tezpur, Sitamarhi. Majuli Island.",
        "Rivers": "India -  Brahmaputra and its tributaries, Bagmati, Kosi, Gandak, Murigandak, Kamlabalan, Mahananada, Adhwara, Ganges, Bhagra, Ganga, Burhi Gandak, Bagmati and Punpun.  \n--Bangladesh - Brahmaputra, Jamuna and its tributaries; Padma, Surma and Kushiyara. -",
        "Began": "2000-08-02",
        "Ended": "2000-08-30",
        "Duration_i": 29.0,
        "Dead": 637.0,
        "Displaced": 10504000.0,
        "Damage__US": 50000000.0,
        "Main_cause": "Monsoonal rain",
        "Severity__": 1.0,
        "Affected_s": 324400.0,
        "Magnitude": 6.973479,
        "Centroid_X": 0.0,
        "Centroid_Y": 0.0,
        "\"x\"_if_act": "",
        "M_6": 1.0,
        "Total_annu": 16.0,
        "M_4": 1.0,
        "Total_an_1": 37.0,
        "Date_Began": "2000-08-02",
        "Total_floo": 391.0,
        "Total_fl_1": 1486.0,
        "F31": null,
        "F32": "",
        "F33": "",
        "F34": "",
        "F35": "",
        "F36": "",
        "matched_by": "text_location"
      },
      "geometry": {
        "type": "Point",
        "coordinates": [
          -1.7976931348623157e+308,
          -1.7976931348623157e+308
        ]
      }
    },
    {
      "type": "Feature",
      "properties": {
        "Register__": 1540.0,
        "Annual_DFO": 61.0,
        "Glide__": "",
        "Country__c": "Bangladesh, India",
        "Other": "",
        "Nations": "",
        "Affected": "",
        "Detailed_L": "Bangladesh: Cox's Bazar, Chittagong, Bandarban districts; Chittagong port city, Aziznagar, Chittagong Hill Tracts, Island of Maheshkhali, Chokoria\nIndia States: Bihar, Assam, West Bengal, Uttar Pradesh, Andhra Pradesh",
        "Rivers": "Matamuhri",
        "Began": "1999-08-11",
        "Ended": "1999-08-15",
        "Duration_i": 5.0,
        "Dead": 18.0,
        "Displaced": 50000.0,
        "Damage__US": 0.0,
        "Main_cause": "Heavy rain",
        "Severity__": 1.0,
        "Affected_s": 66370.0,
        "Magnitude": 5.520942,
        "Centroid_X": 0.0,
        "Centroid_Y": 0.0,
        "\"x\"_if_act": "",
        "M_6": 0.0,
        "Total_annu": 17.0,
        "M_4": 1.0,
        "Total_an_1": 59.0,
        "Date_Began": "1999-08-11",
        "Total_floo": 358.0,
        "Total_fl_1": 1410.0,
        "F31": null,
        "F32": "",
        "F33": "",
        "F34": "",
        "F35": "",
        "F36": "",
        "matched_by": "text_location"
      },
      "geometry": {
        "type": "Point",
        "coordinates": [
          -1.7976931348623157e+308,
          -1.7976931348623157e+308
        ]
      }
    },
    {
      "type": "Feature",
      "properties": {
        "Register__": 1527.0,
        "Annual_DFO": 48.0,
        "Glide__": "",
        "Country__c": "Bangladesh, India",
        "Other": "",
        "Nations": "",
        "Affected": "",
        "Detailed_L": "Bangladesh Districts: Comilla, Lalmonirhat, Habiganj Jamalpur, Munshiganj, Manikganj, Kustia, Rajshahi, Bogra, Kurigram, Gaibandha, Nilphamari, Lalmonirhat, Sunamganj, Chittagong. Cities: Dhaka, Comilla, Chandpur.\nIndia States: Bihar, Assam, West Bengal,",
        "Rivers": "Brahmaputra, Jamuna, Padma, Meghna, Gomti, Surma, Khowai",
        "Began": "1999-07-11",
        "Ended": "1999-08-03",
        "Duration_i": 24.0,
        "Dead": 356.0,
        "Displaced": 33100003.0,
        "Damage__US": 0.0,
        "Main_cause": "Monsoonal rain",
        "Severity__": 1.0,
        "Affected_s": 132360.0,
        "Magnitude": 6.501968,
        "Centroid_X": 0.0,
        "Centroid_Y": 0.0,
        "\"x\"_if_act": "",
        "M_6": 1.0,
        "Total_annu": 14.0,
        "M_4": 1.0,
        "Total_an_1": 46.0,
        "Date_Began": "1999-07-11",
        "Total_floo": 355.0,
        "Total_fl_1": 1397.0,
        "F31": null,
        "F32": "",
        "F33": "",
        "F34": "",
        "F35": "",
        "F36": "",
        "matched_by": "text_location"
      },
      "geometry": {
        "type": "Point",
        "coordinates": [
          -1.7976931348623157e+308,
          -1.7976931348623157e+308
        ]
      }
    },
    {
      "type": "Feature",
      "properties": {
        "Register__": 1232.0,
        "Annual_DFO": 61.0,
        "Glide__": "",
        "Country__c": "India",
        "Other": "",
        "Nations": "",
        "Affected": "",
        "Detailed_L": "States - Bihar, West Bengal",
        "Rivers": "",
        "Began": "1997-08-01",
        "Ended": "1997-08-11",
        "Duration_i": 11.0,
        "Dead": 24.0,
        "Displaced": 100000.0,
        "Damage__US": 0.0,
        "Main_cause": "Monsoonal rain",
        "Severity__": 1.0,
        "Affected_s": 201800.0,
        "Magnitude": 6.346314,
        "Centroid_X": 0.0,
        "Centroid_Y": 0.0,
        "\"x\"_if_act": "",
        "M_6": 1.0,
        "Total_annu": 22.0,
        "M_4": 1.0,
        "Total_an_1": 87.0,
        "Date_Began": "1997-08-01",
        "Total_floo": 282.0,
        "Total_fl_1": 1116.0,
        "F31": null,
        "F32": "",
        "F33": "",
        "F34": "",
        "F35": "",
        "F36": "",
        "matched_by": "text_location"
      },
      "geometry": {
        "type": "Point",
        "coordinates": [
          -1.7976931348623157e+308,
          -1.7976931348623157e+308
        ]
      }
    },
    {
      "type": "Feature",
      "properties": {
        "Register__": 1090.0,
        "Annual_DFO": 48.0,
        "Glide__": "",
        "Country__c": "India",
        "Other": "",
        "Nations": "",
        "Affected": "",
        "Detailed_L": "Bihar state: Kishanganj, Darbhanga, Sitamarhi, Saharsa districts",
        "Rivers": "Gandak, Kosi, Sone, Bagmati, Andhwara",
        "Began": "1996-07-17",
        "Ended": "1996-08-10",
        "Duration_i": 25.0,
        "Dead": 74.0,
        "Displaced": 4000000.0,
        "Damage__US": 980000.0,
        "Main_cause": "Heavy rain",
        "Severity__": 1.0,
        "Affected_s": 171900.0,
        "Magnitude": 6.633216,
        "Centroid_X": 0.0,
        "Centroid_Y": 0.0,
        "\"x\"_if_act": "",
        "M_6": 1.0,
        "Total_annu": 16.0,
        "M_4": 1.0,
        "Total_an_1": 43.0,
        "Date_Began": "1996-07-17",
        "Total_floo": 245.0,
        "Total_fl_1": 980.0,
        "F31": null,
        "F32": "",
        "F33": "",
        "F34": "",
        "F35": "",
        "F36": "",
        "matched_by": "text_location"
      },
      "geometry": {
        "type": "Point",
        "coordinates": [
          -1.7976931348623157e+308,
          -1.7976931348623157e+308
        ]
      }
    },
    {
      "type": "Feature",
      "properties": {
        "Register__": 1011.0,
        "Annual_DFO": 85.0,
        "Glide__": "",
        "Country__c": "India",
        "Other": "",
        "Nations": "",
        "Affected": "",
        "Detailed_L": "States: Bihar, West Bengal, Assam",
        "Rivers": "Ganges",
        "Began": "1995-09-26",
        "Ended": "1995-10-02",
        "Duration_i": 7.0,
        "Dead": 144.0,
        "Displaced": 510000.0,
        "Damage__US": 0.0,
        "Main_cause": "Monsoonal rain",
        "Severity__": 1.0,
        "Affected_s": 308100.0,
        "Magnitude": 6.33379,
        "Centroid_X": 0.0,
        "Centroid_Y": 0.0,
        "\"x\"_if_act": "",
        "M_6": 1.0,
        "Total_annu": 29.0,
        "M_4": 1.0,
        "Total_an_1": 84.0,
        "Date_Began": "1995-09-26",
        "Total_floo": 220.0,
        "Total_fl_1": 907.0,
        "F31": null,
        "F32": "",
        "F33": "",
        "F34": "",
        "F35": "",
        "F36": "",
        "matched_by": "text_location"
      },
      "geometry": {
        "type": "Point",
        "coordinates": [
          -1.7976931348623157e+308,
          -1.7976931348623157e+308
        ]
      }
    },
    {
      "type": "Feature",
      "properties": {
        "Register__": 578.0,
        "Annual_DFO": 91.0,
        "Glide__": "",
        "Country__c": "India",
        "Other": "",
        "Nations": "",
        "Affected": "",
        "Detailed_L": "Bihar State",
        "Rivers": "Ganges",
        "Began": "1991-09-01",
        "Ended": "1991-09-14",
        "Duration_i": 14.0,
        "Dead": 0.0,
        "Displaced": 87500.0,
        "Damage__US": 0.0,
        "Main_cause": "Monsoonal rain",
        "Severity__": 1.0,
        "Affected_s": 170900.0,
        "Magnitude": 6.37887,
        "Centroid_X": 0.0,
        "Centroid_Y": 0.0,
        "\"x\"_if_act": "",
        "M_6": 1.0,
        "Total_annu": 18.0,
        "M_4": 1.0,
        "Total_an_1": 83.0,
        "Date_Began": "1991-09-01",
        "Total_floo": 120.0,
        "Total_fl_1": 516.0,
        "F31": null,
        "F32": "",
        "F33": "",
        "F34": "",
        "F35": "",
        "F36": "",
        "matched_by": "text_location"
      },
      "geometry": {
        "type": "Point",
        "coordinates": [
          -1.7976931348623157e+308,
          -1.7976931348623157e+308
        ]
      }
    },
    {
      "type": "Feature",
      "properties": {
        "Register__": 571.0,
        "Annual_DFO": 84.0,
        "Glide__": "",
        "Country__c": "India",
        "Other": "",
        "Nations": "",
        "Affected": "",
        "Detailed_L": "Uttar Pradesh, Bihar, Himachel Pradesh, Haryana",
        "Rivers": "Burhi Gandak",
        "Began": "1991-08-15",
        "Ended": "1991-08-29",
        "Duration_i": 15.0,
        "Dead": 88.0,
        "Displaced": 0.0,
        "Damage__US": 0.0,
        "Main_cause": "Monsoonal rain",
        "Severity__": 1.0,
        "Affected_s": 547700.0,
        "Magnitude": 6.914634,
        "Centroid_X": 0.0,
        "Centroid_Y": 0.0,
        "\"x\"_if_act": "",
        "M_6": 1.0,
        "Total_annu": 16.0,
        "M_4": 1.0,
        "Total_an_1": 76.0,
        "Date_Began": "1991-08-15",
        "Total_floo": 118.0,
        "Total_fl_1": 509.0,
        "F31": null,
        "F32": "",
        "F33": "",
        "F34": "",
        "F35": "",
        "F36": "",
        "matched_by": "text_location"
      },
      "geometry": {
        "type": "Point",
        "coordinates": [
          -1.7976931348623157e+308,
          -1.7976931348623157e+308
        ]
      }
    },
    {
      "type": "Feature",
      "properties": {
        "Register__": 431.0,
        "Annual_DFO": 48.0,
        "Glide__": "",
        "Country__c": "India",
        "Other": "",
        "Nations": "",
        "Affected": "",
        "Detailed_L": "States: Rajasthan, Gujarat, Uttar Pradesh, Himachal Pradesh, West Bengal, Bihar",
        "Rivers": "Kain, Banas, Rupnarayan, Punpun, Ghaghara",
        "Began": "1990-07-03",
        "Ended": "1990-07-24",
        "Duration_i": 22.0,
        "Dead": 425.0,
        "Displaced": 63517.0,
        "Damage__US": 0.0,
        "Main_cause": "Monsoonal rain",
        "Severity__": 1.0,
        "Affected_s": 1101000.0,
        "Magnitude": 7.38421,
        "Centroid_X": 0.0,
        "Centroid_Y": 0.0,
        "\"x\"_if_act": "",
        "M_6": 1.0,
        "Total_annu": 12.0,
        "M_4": 1.0,
        "Total_an_1": 43.0,
        "Date_Began": "1990-07-03",
        "Total_floo": 89.0,
        "Total_fl_1": 379.0,
        "F31": null,
        "F32": "",
        "F33": "",
        "F34": "",
        "F35": "",
        "F36": "",
        "matched_by": "text_location"
      },
      "geometry": {
        "type": "Point",
        "coordinates": [
          -1.7976931348623157e+308,
          -1.7976931348623157e+308
        ]
      }
    },
    {
      "type": "Feature",
      "properties": {
        "Register__": 53.0,
        "Annual_DFO": 53.0,
        "Glide__": "",
        "Country__c": "India",
        "Other": "",
        "Nations": "",
        "Affected": "",
        "Detailed_L": "States: Uttar Pradesh, Bihar\nDistricts:  Barabai, Lucknow, Sitapur, Sultanpur, Barabanki\nCities:  Lucknow, Orissa Pradesh, Delhi\nRivers:  Bagmati",
        "Rivers": "",
        "Began": "1985-09-13",
        "Ended": "1985-10-15",
        "Duration_i": 33.0,
        "Dead": 557.0,
        "Displaced": 152000.0,
        "Damage__US": 308000000.0,
        "Main_cause": "",
        "Severity__": 1.5,
        "Affected_s": 90000.0,
        "Magnitude": 6.648848,
        "Centroid_X": 0.0,
        "Centroid_Y": 0.0,
        "\"x\"_if_act": "",
        "M_6": 1.0,
        "Total_annu": 10.0,
        "M_4": 1.0,
        "Total_an_1": 50.0,
        "Date_Began": "1985-09-13",
        "Total_floo": 10.0,
        "Total_fl_1": 50.0,
        "F31": null,
        "F32": "",
        "F33": "",
        "F34": "",
        "F35": "",
        "F36": "",
        "matched_by": "text_location"
      },
      "geometry": {
        "type": "Point",
        "coordinates": [
          -1.7976931348623157e+308,
          -1.7976931348623157e+308
        ]
      }
    }
  ]
}